{
  "type": "FeatureCollection",
  "features": [
    {
      "type": "Feature",
      "properties": {
        "norad_id": 30013,
        "name": "FENGYUN 1C DEB",
        "group": "fengyun-1c-debris",
        "lat": 42.05806672343041,
        "lon": 9.177129278350273,
        "alt_km": 850.9176883141799,
        "timestamp": "2025-12-24T05:51:19.881625+00:00",
        "meta_object_name": "FENGYUN 1C DEB",
        "meta_object_id": "1999-025MN",
        "meta_epoch": "2025-12-23T20:08:08.971872",
        "meta_mean_motion": 13.8783222,
        "meta_eccentricity": 0.01278745,
        "meta_inclination": 99.5794,
        "meta_ra_of_asc_node": 17.5257,
        "meta_arg_of_pericenter": 14.5677,
        "meta_mean_anomaly": 165.2733,
        "meta_ephemeris_type": 0,
        "meta_classification_type": "U",
        "meta_norad_cat_id": 30013,
        "meta_element_set_no": 999,
        "meta_rev_at_epoch": 95835,
        "meta_bstar": 0.00022733237,
        "meta_mean_motion_dot": 2.41e-06,
        "meta_mean_motion_ddot": 0,
        "tle_line1": "1 30013U 99025MN  25357.83899273  .00000241  00000+0  22733-3 0  9999",
        "tle_line2": "2 30013  99.5794  17.5257 0127874  14.5677 165.2733 13.87832220958351"
      },
      "geometry": {
        "type": "Point",
        "coordinates": [
          9.177129278350273,
          42.05806672343041
        ]
      }
    },
    {
      "type": "Feature",
      "properties": {
        "norad_id": 30015,
        "name": "FENGYUN 1C DEB",
        "group": "fengyun-1c-debris",
        "lat": -53.228938268696446,
        "lon": 169.2600755738455,
        "alt_km": 817.6906969975362,
        "timestamp": "2025-12-24T05:51:19.881635+00:00",
        "meta_object_name": "FENGYUN 1C DEB",
        "meta_object_id": "1999-025MQ",
        "meta_epoch": "2025-12-23T22:20:42.122112",
        "meta_mean_motion": 14.3082977,
        "meta_eccentricity": 0.00386814,
        "meta_inclination": 99.2285,
        "meta_ra_of_asc_node": 1.4935,
        "meta_arg_of_pericenter": 93.1212,
        "meta_mean_anomaly": 329.7462,
        "meta_ephemeris_type": 0,
        "meta_classification_type": "U",
        "meta_norad_cat_id": 30015,
        "meta_element_set_no": 999,
        "meta_rev_at_epoch": 98333,
        "meta_bstar": 0.00050722339,
        "meta_mean_motion_dot": 1.292e-05,
        "meta_mean_motion_ddot": 0,
        "tle_line1": "1 30015U 99025MQ  25357.93104308  .00001292  00000+0  50722-3 0  9996",
        "tle_line2": "2 30015  99.2285   1.4935 0038681  93.1212 329.7462 14.30829770983332"
      },
      "geometry": {
        "type": "Point",
        "coordinates": [
          169.2600755738455,
          -53.228938268696446
        ]
      }
    },
    {
      "type": "Feature",
      "properties": {
        "norad_id": 30016,
        "name": "FENGYUN 1C DEB",
        "group": "fengyun-1c-debris",
        "lat": -0.024849803961629564,
        "lon": -168.58267984337127,
        "alt_km": 668.3095907174502,
        "timestamp": "2025-12-24T05:51:19.881645+00:00",
        "meta_object_name": "FENGYUN 1C DEB",
        "meta_object_id": "1999-025MR",
        "meta_epoch": "2025-12-23T20:04:57.435168",
        "meta_mean_motion": 14.78783543,
        "meta_eccentricity": 0.00460991,
        "meta_inclination": 98.904,
        "meta_ra_of_asc_node": 10.971,
        "meta_arg_of_pericenter": 6.4627,
        "meta_mean_anomaly": 166.8661,
        "meta_ephemeris_type": 0,
        "meta_classification_type": "U",
        "meta_norad_cat_id": 30016,
        "meta_element_set_no": 999,
        "meta_rev_at_epoch": 99617,
        "meta_bstar": 0.0018237324,
        "meta_mean_motion_dot": 0.00013604,
        "meta_mean_motion_ddot": 0,
        "tle_line1": "1 30016U 99025MR  25357.83677587  .00013604  00000+0  18237-2 0  9994",
        "tle_line2": "2 30016  98.9040  10.9710 0046099   6.4627 166.8661 14.78783543996179"
      },
      "geometry": {
        "type": "Point",
        "coordinates": [
          -168.58267984337127,
          -0.024849803961629564
        ]
      }
    },
    {
      "type": "Feature",
      "properties": {
        "norad_id": 30017,
        "name": "FENGYUN 1C DEB",
        "group": "fengyun-1c-debris",
        "lat": -41.324732223557525,
        "lon": 51.29009583311847,
        "alt_km": 849.7810912021932,
        "timestamp": "2025-12-24T05:51:19.881656+00:00",
        "meta_object_name": "FENGYUN 1C DEB",
        "meta_object_id": "1999-025MS",
        "meta_epoch": "2025-12-23T02:06:57.679776",
        "meta_mean_motion": 14.61218536,
        "meta_eccentricity": 0.02179306,
        "meta_inclination": 98.7532,
        "meta_ra_of_asc_node": 42.281,
        "meta_arg_of_pericenter": 143.286,
        "meta_mean_anomaly": 218.3496,
        "meta_ephemeris_type": 0,
        "meta_classification_type": "U",
        "meta_norad_cat_id": 30017,
        "meta_element_set_no": 999,
        "meta_rev_at_epoch": 595,
        "meta_bstar": 0.00014426213,
        "meta_mean_motion_dot": 9.3e-06,
        "meta_mean_motion_ddot": 0,
        "tle_line1": "1 30017U 99025MS  25357.08816759  .00000930  00000+0  14426-3 0  9993",
        "tle_line2": "2 30017  98.7532  42.2810 0217930 143.2860 218.3496 14.61218536  5959"
      },
      "geometry": {
        "type": "Point",
        "coordinates": [
          51.29009583311847,
          -41.324732223557525
        ]
      }
    },
    {
      "type": "Feature",
      "properties": {
        "norad_id": 30018,
        "name": "FENGYUN 1C DEB",
        "group": "fengyun-1c-debris",
        "lat": 50.798220004915606,
        "lon": -87.32437514065296,
        "alt_km": 575.2575264326542,
        "timestamp": "2025-12-24T05:51:19.881666+00:00",
        "meta_object_name": "FENGYUN 1C DEB",
        "meta_object_id": "1999-025MT",
        "meta_epoch": "2025-12-23T11:24:41.648256",
        "meta_mean_motion": 14.73294514,
        "meta_eccentricity": 0.01169639,
        "meta_inclination": 98.7551,
        "meta_ra_of_asc_node": 80.9559,
        "meta_arg_of_pericenter": 161.8881,
        "meta_mean_anomaly": 213.4873,
        "meta_ephemeris_type": 0,
        "meta_classification_type": "U",
        "meta_norad_cat_id": 30018,
        "meta_element_set_no": 999,
        "meta_rev_at_epoch": 595,
        "meta_bstar": 0.00081586017,
        "meta_mean_motion_dot": 5.822e-05,
        "meta_mean_motion_ddot": 0,
        "tle_line1": "1 30018U 99025MT  25357.47548204  .00005822  00000+0  81586-3 0  9990",
        "tle_line2": "2 30018  98.7551  80.9559 0116963 161.8881 213.4873 14.73294514  5951"
      },
      "geometry": {
        "type": "Point",
        "coordinates": [
          -87.32437514065296,
          50.798220004915606
        ]
      }
    },
    {
      "type": "Feature",
      "properties": {
        "norad_id": 30020,
        "name": "FENGYUN 1C DEB",
        "group": "fengyun-1c-debris",
        "lat": -76.54930317853199,
        "lon": 141.13326310315352,
        "alt_km": 984.6523479622292,
        "timestamp": "2025-12-24T05:51:19.881676+00:00",
        "meta_object_name": "FENGYUN 1C DEB",
        "meta_object_id": "1999-025MV",
        "meta_epoch": "2025-12-23T22:04:51.939840",
        "meta_mean_motion": 14.04483646,
        "meta_eccentricity": 0.01838614,
        "meta_inclination": 98.847,
        "meta_ra_of_asc_node": 1.4494,
        "meta_arg_of_pericenter": 39.335,
        "meta_mean_anomaly": 24.9298,
        "meta_ephemeris_type": 0,
        "meta_classification_type": "U",
        "meta_norad_cat_id": 30020,
        "meta_element_set_no": 999,
        "meta_rev_at_epoch": 96815,
        "meta_bstar": 0.00037610418,
        "meta_mean_motion_dot": 6.55e-06,
        "meta_mean_motion_ddot": 0,
        "tle_line1": "1 30020U 99025MV  25357.92004560  .00000655  00000+0  37610-3 0  9993",
        "tle_line2": "2 30020  98.8470   1.4494 0183861  39.3350  24.9298 14.04483646968158"
      },
      "geometry": {
        "type": "Point",
        "coordinates": [
          141.13326310315352,
          -76.54930317853199
        ]
      }
    },
    {
      "type": "Feature",
      "properties": {
        "norad_id": 30021,
        "name": "FENGYUN 1C DEB",
        "group": "fengyun-1c-debris",
        "lat": 76.98761260356547,
        "lon": -52.83745279633126,
        "alt_km": 921.4421902362492,
        "timestamp": "2025-12-24T05:51:19.881686+00:00",
        "meta_object_name": "FENGYUN 1C DEB",
        "meta_object_id": "1999-025MW",
        "meta_epoch": "2025-12-23T21:14:32.657280",
        "meta_mean_motion": 14.04895234,
        "meta_eccentricity": 0.00718114,
        "meta_inclination": 98.8361,
        "meta_ra_of_asc_node": 349.12,
        "meta_arg_of_pericenter": 255.4999,
        "meta_mean_anomaly": 170.943,
        "meta_ephemeris_type": 0,
        "meta_classification_type": "U",
        "meta_norad_cat_id": 30021,
        "meta_element_set_no": 999,
        "meta_rev_at_epoch": 97088,
        "meta_bstar": -2.6781975e-05,
        "meta_mean_motion_dot": -8.8e-07,
        "meta_mean_motion_ddot": 0,
        "tle_line1": "1 30021U 99025MW  25357.88510020 -.00000088  00000+0 -26782-4 0  9993",
        "tle_line2": "2 30021  98.8361 349.1200 0071811 255.4999 170.9430 14.04895234970889"
      },
      "geometry": {
        "type": "Point",
        "coordinates": [
          -52.83745279633126,
          76.98761260356547
        ]
      }
    }
  ]
}